{"type": "FeatureCollection", "features": [ {"type": "Feature", "properties": {"norad_id": 66564, "name": "STARLINK-35358", "group": "last-30-days", "lat": 2.2223898516033738, "lon": 67.09495816967512, "alt_km": 397.83967427855896, "timestamp": "2025-12-22T08:58:19.044829+00:00", "meta": {"OBJECT_NAME": "STARLINK-35358", "OBJECT_ID": "2025-268H", "EPOCH": "2025-12-22T04:00:01.998720", "MEAN_MOTION": 15.56466652, "ECCENTRICITY": 0.0001512, "INCLINATION": 43.0006, "RA_OF_ASC_NODE": 65.9308, "ARG_OF_PERICENTER": 254.64, "MEAN_ANOMALY": 26.6402, "EPHEMERIS_TYPE": 0, "CLASSIFICATION_TYPE": "U", "NORAD_CAT_ID": 66564, "ELEMENT_SET_NO": 999, "REV_AT_EPOCH": 608, "BSTAR": -0.0019269, "MEAN_MOTION_DOT": -0.0013804, "MEAN_MOTION_DDOT": 0}, "tle": {"line1": "1 66564U 25268H   25356.16668980 -.00138040  00000+0 -19269-2 0  9991", "line2": "2 66564  43.0006  65.9308 0001512 254.6400  26.6402 15.56466652  6083"}}, "geometry": {"type": "Point", "coordinates": [67.09495816967512, 2.2223898516033738]}}, {"type": "Feature", "properties": {"norad_id": 66565, "name": "STARLINK-35893", "group": "last-30-days", "lat": 3.5079752064707415, "lon": 68.47511815692963, "alt_km": 397.6405448198484, "timestamp": "2025-12-22T08:58:19.044842+00:00", "meta": {"OBJECT_NAME": "STARLINK-35893", "OBJECT_ID": "2025-268J", "EPOCH": "2025-12-22T04:00:01.998720", "MEAN_MOTION": 15.56367153, "ECCENTRICITY": 0.0001572, "INCLINATION": 43.0005, "RA_OF_ASC_NODE": 65.9257, "ARG_OF_PERICENTER": 263.2466, "MEAN_ANOMALY": 19.9683, "EPHEMERIS_TYPE": 0, "CLASSIFICATION_TYPE": "U", "NORAD_CAT_ID": 66565, "ELEMENT_SET_NO": 999, "REV_AT_EPOCH": 613, "BSTAR": 0.00046601, "MEAN_MOTION_DOT": 0.00033526, "MEAN_MOTION_DDOT": 0}, "tle": {"line1": "1 66565U 25268J   25356.16668980  .00033526  00000+0  46601-3 0  9994", "line2": "2 66565  43.0005  65.9257 0001572 263.2466  19.9683 15.56367153  6138"}}, "geometry": {"type": "Point", "coordinates": [68.47511815692963, 3.5079752064707415]}}, {"type": "Feature", "properties": {"norad_id": 66566, "name": "STARLINK-35871", "group": "last-30-days", "lat": 4.833338155211482, "lon": 69.90441824126155, "alt_km": 397.59505506568803, "timestamp": "2025-12-22T08:58:19.044853+00:00", "meta": {"OBJECT_NAME": "STARLINK-35871", "OBJECT_ID": "2025-268K", "EPOCH": "2025-12-22T04:00:01.998720", "MEAN_MOTION": 15.56473492, "ECCENTRICITY": 0.0001532, "INCLINATION": 43.0006, "RA_OF_ASC_NODE": 65.9208, "ARG_OF_PERICENTER": 251.7258, "MEAN_ANOMALY": 33.3893, "EPHEMERIS_TYPE": 0, "CLASSIFICATION_TYPE": "U", "NORAD_CAT_ID": 66566, "ELEMENT_SET_NO": 999, "REV_AT_EPOCH": 608, "BSTAR": -0.0020905, "MEAN_MOTION_DOT": -0.00149553, "MEAN_MOTION_DDOT": 0}, "tle": {"line1": "1 66566U 25268K   25356.16668980 -.00149553  00000+0 -20905-2 0  9993", "line2": "2 66566  43.0006  65.9208 0001532 251.7258  33.3893 15.56473492  6084"}}, "geometry": {"type": "Point", "coordinates": [69.90441824126155, 4.833338155211482]}}, {"type": "Feature", "properties": {"norad_id": 66567, "name": "STARLINK-35825", "group": "last-30-days", "lat": 6.145644563701093, "lon": 71.3286503476274, "alt_km": 397.1188845855122, "timestamp": "2025-12-22T08:58:19.044864+00:00", "meta": {"OBJECT_NAME": "STARLINK-35825", "OBJECT_ID": "2025-268L", "EPOCH": "2025-12-22T04:00:01.998720", "MEAN_MOTION": 15.56523444, "ECCENTRICITY": 0.0001304, "INCLINATION": 43.0006, "RA_OF_ASC_NODE": 65.9161, "ARG_OF_PERICENTER": 266.2603, "MEAN_ANOMALY": 20.7672, "EPHEMERIS_TYPE": 0, "CLASSIFICATION_TYPE": "U", "NORAD_CAT_ID": 66567, "ELEMENT_SET_NO": 999, "REV_AT_EPOCH": 608, "BSTAR": -0.0033169, "MEAN_MOTION_DOT": -0.00235002, "MEAN_MOTION_DDOT": 0}, "tle": {"line1": "1 66567U 25268L   25356.16668980 -.00235002  00000+0 -33169-2 0  9995", "line2": "2 66567  43.0006  65.9161 0001304 266.2603  20.7672 15.56523444  6083"}}, "geometry": {"type": "Point", "coordinates": [71.3286503476274, 6.145644563701093]}}, {"type": "Feature", "properties": {"norad_id": 66568, "name": "STARLINK-35803", "group": "last-30-days", "lat": -7.760272562214669, "lon": 56.33244366017726, "alt_km": 401.2025629151349, "timestamp": "2025-12-22T08:58:19.044875+00:00", "meta": {"OBJECT_NAME": "STARLINK-35803", "OBJECT_ID": "2025-268M", "EPOCH": "2025-12-22T04:00:01.998720", "MEAN_MOTION": 15.55031206, "ECCENTRICITY": 0.0001553, "INCLINATION": 43.0005, "RA_OF_ASC_NODE": 65.9621, "ARG_OF_PERICENTER": 268.7788, "MEAN_ANOMALY": 358.6857, "EPHEMERIS_TYPE": 0, "CLASSIFICATION_TYPE": "U", "NORAD_CAT_ID": 66568, "ELEMENT_SET_NO": 999, "REV_AT_EPOCH": 608, "BSTAR": 0.017155, "MEAN_MOTION_DOT": 0.01310089, "MEAN_MOTION_DDOT": 0}, "tle": {"line1": "1 66568U 25268M   25356.16668980  .01310089  00000+0  17155-1 0  9990", "line2": "2 66568  43.0005  65.9621 0001553 268.7788 358.6857 15.55031206  6088"}}, "geometry": {"type": "Point", "coordinates": [56.33244366017726, -7.760272562214669]}}, {"type": "Feature", "properties": {"norad_id": 66569, "name": "STARLINK-35835", "group": "last-30-days", "lat": 8.716958977195322, "lon": 74.15300384414012, "alt_km": 397.0543395318664, "timestamp": "2025-12-22T08:58:19.044885+00:00", "meta": {"OBJECT_NAME": "STARLINK-35835", "OBJECT_ID": "2025-268N", "EPOCH": "2025-12-22T04:00:01.998720", "MEAN_MOTION": 15.56450106, "ECCENTRICITY": 0.0001546, "INCLINATION": 43.0007, "RA_OF_ASC_NODE": 65.9054, "ARG_OF_PERICENTER": 257.5389, "MEAN_ANOMALY": 33.329, "EPHEMERIS_TYPE": 0, "CLASSIFICATION_TYPE": "U", "NORAD_CAT_ID": 66569, "ELEMENT_SET_NO": 999, "REV_AT_EPOCH": 608, "BSTAR": -0.0014358, "MEAN_MOTION_DOT": -0.00103338, "MEAN_MOTION_DDOT": 0}, "tle": {"line1": "1 66569U 25268N   25356.16668980 -.00103338  00000+0 -14358-2 0  9992", "line2": "2 66569  43.0007  65.9054 0001546 257.5389  33.3290 15.56450106  6089"}}, "geometry": {"type": "Point", "coordinates": [74.15300384414012, 8.716958977195322]}}, {"type": "Feature", "properties": {"norad_id": 66570, "name": "STARLINK-35834", "group": "last-30-days", "lat": 3.744194592819908, "lon": 68.72552793232323, "alt_km": 411.37929163081753, "timestamp": "2025-12-22T08:58:19.044896+00:00", "meta": {"OBJECT_NAME": "STARLINK-35834", "OBJECT_ID": "2025-268P", "EPOCH": "2025-12-22T04:00:01.998720", "MEAN_MOTION": 15.52544893, "ECCENTRICITY": 0.00013, "INCLINATION": 43.0002, "RA_OF_ASC_NODE": 65.9131, "ARG_OF_PERICENTER": 262.3813, "MEAN_ANOMALY": 24.3967, "EPHEMERIS_TYPE": 0, "CLASSIFICATION_TYPE": "U", "NORAD_CAT_ID": 66570, "ELEMENT_SET_NO": 999, "REV_AT_EPOCH": 613, "BSTAR": -0.036619, "MEAN_MOTION_DOT": -0.02054001, "MEAN_MOTION_DDOT": 0}, "tle": {"line1": "1 66570U 25268P   25356.16668980 -.02054001  00000+0 -36619-1 0  9991", "line2": "2 66570  43.0002  65.9131 0001300 262.3813  24.3967 15.52544893  6136"}}, "geometry": {"type": "Point", "coordinates": [68.72552793232323, 3.744194592819908]}}, {"type": "Feature", "properties": {"norad_id": 66571, "name": "STARLINK-35836", "group": "last-30-days", "lat": 7.035980346773048, "lon": 72.29864158447948, "alt_km": 408.5387857522992, "timestamp": "2025-12-22T08:58:19.044907+00:00", "meta": {"OBJECT_NAME": "STARLINK-35836", "OBJECT_ID": "2025-268Q", "EPOCH": "2025-12-22T04:00:01.998720", "MEAN_MOTION": 15.53385737, "ECCENTRICITY": 0.0001239, "INCLINATION": 43.0005, "RA_OF_ASC_NODE": 65.9038, "ARG_OF_PERICENTER": 262.5913, "MEAN_ANOMALY": 28.4129, "EPHEMERIS_TYPE": 0, "CLASSIFICATION_TYPE": "U", "NORAD_CAT_ID": 66571, "ELEMENT_SET_NO": 999, "REV_AT_EPOCH": 608, "BSTAR": -0.035653, "MEAN_MOTION_DOT": -0.02061373, "MEAN_MOTION_DDOT": 0}, "tle": {"line1": "1 66571U 25268Q   25356.16668980 -.02061373  00000+0 -35653-1 0  9999", "line2": "2 66571  43.0005  65.9038 0001239 262.5913  28.4129 15.53385737  6080"}}, "geometry": {"type": "Point", "coordinates": [72.29864158447948, 7.035980346773048]}}, {"type": "Feature", "properties": {"norad_id": 66572, "name": "STARLINK-35870", "group": "last-30-days", "lat": 10.852937871541734, "lon": 76.54745497806272, "alt_km": 404.0843296943558, "timestamp": "2025-12-22T08:58:19.044917+00:00", "meta": {"OBJECT_NAME": "STARLINK-35870", "OBJECT_ID": "2025-268R", "EPOCH": "2025-12-22T04:00:01.998720", "MEAN_MOTION": 15.54826271, "ECCENTRICITY": 0.0001623, "INCLINATION": 43.0004, "RA_OF_ASC_NODE": 65.8936, "ARG_OF_PERICENTER": 256.8362, "MEAN_ANOMALY": 38.7652, "EPHEMERIS_TYPE": 0, "CLASSIFICATION_TYPE": "U", "NORAD_CAT_ID": 66572, "ELEMENT_SET_NO": 999, "REV_AT_EPOCH": 608, "BSTAR": -0.033607, "MEAN_MOTION_DOT": -0.02050748, "MEAN_MOTION_DDOT": 0}, "tle": {"line1": "1 66572U 25268R   25356.16668980 -.02050748  00000+0 -33607-1 0  9991", "line2": "2 66572  43.0004  65.8936 0001623 256.8362  38.7652 15.54826271  6086"}}, "geometry": {"type": "Point", "coordinates": [76.54745497806272, 10.852937871541734]}}, {"type": "Feature", "properties": {"norad_id": 66573, "name": "STARLINK-35650", "group": "last-30-days", "lat": 13.245498238318824, "lon": 79.29617440177505, "alt_km": 401.70584513505037, "timestamp": "2025-12-22T08:58:19.044928+00:00", "meta": {"OBJECT_NAME": "STARLINK-35650", "OBJECT_ID": "2025-268S", "EPOCH": "2025-12-22T04:00:01.998720", "MEAN_MOTION": 15.5608691, "ECCENTRICITY": 0.0002183, "INCLINATION": 43.0007, "RA_OF_ASC_NODE": 65.8858, "ARG_OF_PERICENTER": 237.603, "MEAN_ANOMALY": 60.784, "EPHEMERIS_TYPE": 0, "CLASSIFICATION_TYPE": "U", "NORAD_CAT_ID": 66573, "ELEMENT_SET_NO": 999, "REV_AT_EPOCH": 608, "BSTAR": -0.043572, "MEAN_MOTION_DOT": -0.02741397, "MEAN_MOTION_DDOT": 0}, "tle": {"line1": "1 66573U 25268S   25356.16668980 -.02741397  00000+0 -43572-1 0  9991", "line2": "2 66573  43.0007  65.8858 0002183 237.6030  60.7840 15.56086910  6088"}}, "geometry": {"type": "Point", "coordinates": [79.29617440177505, 13.245498238318824]}}]}